IRIDIUM 36              
1 24967U 97056C   25034.63699690  .00000965  00000+0  31682-3 0  9999
2 24967  86.3941 229.0499 0002255  90.5117 269.6339 14.37390266433035
IRIDIUM 39              
1 25042U 97069D   25034.57892987  .00001232  00000+0  31967-3 0  9999
2 25042  86.3878 268.4235 0019354  38.1704 322.0866 14.48878988429614
IRIDIUM 38              
1 25043U 97069E   25034.63705994  .00000912  00000+0  29592-3 0  9993
2 25043  86.3948 289.3723 0002780 127.5710 232.5740 14.37899107426765
IRIDIUM 42              
1 25077U 97077A   25034.20129933  .00000926  00000+0  31137-3 0  9998
2 25077  86.3963 295.5630 0001981 104.1020 256.0397 14.36152190421961
IRIDIUM 44              
1 25078U 97077B   25034.16939234  .00000985  00000+0  30658-3 0  9999
2 25078  86.3934 277.8429 0003866  96.5771 263.5868 14.40021648424417
IRIDIUM 45              
1 25104U 97082A   25034.61380402  .00022050  00000+0  91388-3 0  9996
2 25104  86.3610 112.4578 0132890 110.0251 251.5355 15.15943681431769
IRIDIUM 24              
1 25105U 97082B   25034.31415968  .00001257  00000+0  37809-3 0  9994
2 25105  86.3951 137.0789 0012426 151.9321 208.2552 14.41863842423924
IRIDIUM 51              
1 25262U 98018A   25034.26124399  .00036333  00000+0  10872-2 0  9990
2 25262  86.3892 121.5803 0107736  41.9285 319.0148 15.28735109426490
